start=new Date('2022-12-31T00:00:00.000Z').valueOf();
sats=[{"EPHEMERIS_TYPE":"0","CENTER_NAME":"EARTH","MEAN_MOTION_DOT":"0.00025034","OBJECT_TYPE":"PAYLOAD","BSTAR":"0.00018193000000","OBJECT_NAME":"STARLINK-5248","RA_OF_ASC_NODE":"188.1345","DECAY_DATE":null,"PERIAPSIS":"348.277","ARG_OF_PERICENTER":"19.9533","FILE":"3726907","MEAN_MOTION_DDOT":"0.0000000000000","PERIOD":"91.531","APOAPSIS":"351.007","REF_FRAME":"TEME","LAUNCH_DATE":"2022-10-28","NORAD_CAT_ID":"54174","CLASSIFICATION_TYPE":"U","EPOCH":"2022-12-30T16:37:45.161184","RCS_SIZE":"LARGE","MEAN_MOTION":"15.73241421","TIME_SYSTEM":"UTC","TLE_LINE1":"1 54174U 22141T   22364.69288381  .00025034  00000-0  18193-3 0  9992","SITE":"AFWTR","COUNTRY_CODE":"US","TLE_LINE2":"2 54174  53.2157 188.1345 0002029  19.9533 340.1566 15.73241421 10050","INCLINATION":"53.2157","GP_ID":"221792684","OBJECT_ID":"2022-141T","ECCENTRICITY":"0.00020290","SEMIMAJOR_AXIS":"6727.777","MEAN_ELEMENT_THEORY":"SGP4","ELEMENT_SET_NO":"999","REV_AT_EPOCH":"1005","MEAN_ANOMALY":"340.1566"},{"ELEMENT_SET_NO":"999","MEAN_ANOMALY":"323.8384","REV_AT_EPOCH":"130","GP_ID":"221790558","OBJECT_ID":"2022-141U","ECCENTRICITY":"0.00013340","SEMIMAJOR_AXIS":"6894.035","MEAN_ELEMENT_THEORY":"SGP4","SITE":"AFWTR","TLE_LINE1":"1 54175U 22141U   22364.58334491 -.01162879  00000-0 -63751-1 0  9995","COUNTRY_CODE":"US","TLE_LINE2":"2 54175  53.2166 194.5788 0001334  74.8792 323.8384 15.16674970  1308","INCLINATION":"53.2166","CLASSIFICATION_TYPE":"U","EPOCH":"2022-12-30T14:00:01.000224","RCS_SIZE":"LARGE","MEAN_MOTION":"15.16674970","TIME_SYSTEM":"UTC","LAUNCH_DATE":"2022-10-28","NORAD_CAT_ID":"54175","MEAN_MOTION_DDOT":"0.0000000000000","PERIOD":"94.945","APOAPSIS":"516.820","REF_FRAME":"TEME","BSTAR":"-0.06375100000000","OBJECT_NAME":"STARLINK-5256","RA_OF_ASC_NODE":"194.5788","DECAY_DATE":null,"PERIAPSIS":"514.981","ARG_OF_PERICENTER":"74.8792","FILE":"3726810","EPHEMERIS_TYPE":"0","CENTER_NAME":"EARTH","MEAN_MOTION_DOT":"-0.01162879","OBJECT_TYPE":"PAYLOAD"},{"MEAN_ELEMENT_THEORY":"SGP4","ECCENTRICITY":"0.00014390","SEMIMAJOR_AXIS":"6890.310","GP_ID":"221789931","OBJECT_ID":"2022-141V","REV_AT_EPOCH":"130","MEAN_ANOMALY":"29.4393","ELEMENT_SET_NO":"999","TIME_SYSTEM":"UTC","MEAN_MOTION":"15.17905084","EPOCH":"2022-12-30T14:00:01.000224","RCS_SIZE":"LARGE","CLASSIFICATION_TYPE":"U","TLE_LINE2":"2 54176  53.2167 194.4507 0001439  73.9676  29.4393 15.17905084  1308","INCLINATION":"53.2167","COUNTRY_CODE":"US","SITE":"AFWTR","TLE_LINE1":"1 54176U 22141V   22364.58334491 -.01153199  00000-0 -60972-1 0  9993","REF_FRAME":"TEME","APOAPSIS":"513.167","PERIOD":"94.868","MEAN_MOTION_DDOT":"0.0000000000000","NORAD_CAT_ID":"54176","LAUNCH_DATE":"2022-10-28","MEAN_MOTION_DOT":"-0.01153199","OBJECT_TYPE":"PAYLOAD","CENTER_NAME":"EARTH","EPHEMERIS_TYPE":"0","PERIAPSIS":"511.184","ARG_OF_PERICENTER":"73.9676","FILE":"3726810","DECAY_DATE":null,"RA_OF_ASC_NODE":"194.4507","BSTAR":"-0.06097200000000","OBJECT_NAME":"STARLINK-5154"},{"REF_FRAME":"TEME","APOAPSIS":"514.922","PERIOD":"94.906","MEAN_MOTION_DDOT":"0.0000000000000","NORAD_CAT_ID":"54177","LAUNCH_DATE":"2022-10-28","MEAN_MOTION_DOT":"-0.01152756","OBJECT_TYPE":"PAYLOAD","CENTER_NAME":"EARTH","EPHEMERIS_TYPE":"0","ARG_OF_PERICENTER":"81.8429","PERIAPSIS":"513.174","FILE":"3726810","DECAY_DATE":null,"RA_OF_ASC_NODE":"194.5143","BSTAR":"-0.06204800000000","OBJECT_NAME":"STARLINK-5186","MEAN_ELEMENT_THEORY":"SGP4","ECCENTRICITY":"0.00012680","SEMIMAJOR_AXIS":"6892.183","GP_ID":"221790140","OBJECT_ID":"2022-141W","MEAN_ANOMALY":"349.5036","REV_AT_EPOCH":"130","ELEMENT_SET_NO":"999","TIME_SYSTEM":"UTC","MEAN_MOTION":"15.17286418","EPOCH":"2022-12-30T14:00:01.000224","RCS_SIZE":"LARGE","CLASSIFICATION_TYPE":"U","TLE_LINE2":"2 54177  53.2167 194.5143 0001268  81.8429 349.5036 15.17286418  1303","INCLINATION":"53.2167","COUNTRY_CODE":"US","SITE":"AFWTR","TLE_LINE1":"1 54177U 22141W   22364.58334491 -.01152756  00000-0 -62048-1 0  9998"},{"REF_FRAME":"TEME","APOAPSIS":"505.676","PERIOD":"94.708","MEAN_MOTION_DDOT":"0.0000000000000","NORAD_CAT_ID":"54178","LAUNCH_DATE":"2022-10-28","OBJECT_TYPE":"PAYLOAD","MEAN_MOTION_DOT":"-0.01133631","CENTER_NAME":"EARTH","EPHEMERIS_TYPE":"0","FILE":"3726810","ARG_OF_PERICENTER":"42.9821","PERIAPSIS":"503.171","DECAY_DATE":null,"RA_OF_ASC_NODE":"193.7490","OBJECT_NAME":"STARLINK-5164","BSTAR":"-0.05553500000000","MEAN_ELEMENT_THEORY":"SGP4","SEMIMAJOR_AXIS":"6882.558","ECCENTRICITY":"0.00018200","OBJECT_ID":"2022-141X","GP_ID":"221790768","REV_AT_EPOCH":"130","MEAN_ANOMALY":"53.5775","ELEMENT_SET_NO":"999","TIME_SYSTEM":"UTC","MEAN_MOTION":"15.20470236","RCS_SIZE":"LARGE","EPOCH":"2022-12-30T14:00:01.000224","CLASSIFICATION_TYPE":"U","INCLINATION":"53.2167","TLE_LINE2":"2 54178  53.2167 193.7490 0001820  42.9821  53.5775 15.20470236  1307","COUNTRY_CODE":"US","TLE_LINE1":"1 54178U 22141X   22364.58334491 -.01133631  00000-0 -55535-1 0  9993","SITE":"AFWTR"},{"MEAN_MOTION_DOT":"-0.01163017","OBJECT_TYPE":"PAYLOAD","CENTER_NAME":"EARTH","EPHEMERIS_TYPE":"0","PERIAPSIS":"512.211","ARG_OF_PERICENTER":"84.7638","FILE":"3726810","DECAY_DATE":null,"RA_OF_ASC_NODE":"194.4825","BSTAR":"-0.06207700000000","OBJECT_NAME":"STARLINK-5122","REF_FRAME":"TEME","APOAPSIS":"513.968","PERIOD":"94.886","MEAN_MOTION_DDOT":"0.0000000000000","NORAD_CAT_ID":"54179","LAUNCH_DATE":"2022-10-28","TIME_SYSTEM":"UTC","MEAN_MOTION":"15.17602850","EPOCH":"2022-12-30T14:00:01.000224","RCS_SIZE":"LARGE","CLASSIFICATION_TYPE":"U","TLE_LINE2":"2 54179  53.2167 194.4825 0001275  84.7638   2.6802 15.17602850  1303","INCLINATION":"53.2167","COUNTRY_CODE":"US","SITE":"AFWTR","TLE_LINE1":"1 54179U 22141Y   22364.58334491 -.01163017  00000-0 -62077-1 0  9994","MEAN_ELEMENT_THEORY":"SGP4","ECCENTRICITY":"0.00012750","SEMIMAJOR_AXIS":"6891.225","GP_ID":"221790977","OBJECT_ID":"2022-141Y","MEAN_ANOMALY":"2.6802","REV_AT_EPOCH":"130","ELEMENT_SET_NO":"999"},{"LAUNCH_DATE":"2022-10-28","NORAD_CAT_ID":"54180","MEAN_MOTION_DDOT":"0.0000000000000","PERIOD":"94.772","APOAPSIS":"508.574","REF_FRAME":"TEME","BSTAR":"-0.05864400000000","OBJECT_NAME":"STARLINK-5228","RA_OF_ASC_NODE":"194.2966","DECAY_DATE":null,"ARG_OF_PERICENTER":"69.2061","PERIAPSIS":"506.525","FILE":"3726810","EPHEMERIS_TYPE":"0","CENTER_NAME":"EARTH","MEAN_MOTION_DOT":"-0.01159136","OBJECT_TYPE":"PAYLOAD","ELEMENT_SET_NO":"999","REV_AT_EPOCH":"130","MEAN_ANOMALY":"112.2061","GP_ID":"221789513","OBJECT_ID":"2022-141Z","ECCENTRICITY":"0.00014880","SEMIMAJOR_AXIS":"6885.684","MEAN_ELEMENT_THEORY":"SGP4","SITE":"AFWTR","TLE_LINE1":"1 54180U 22141Z   22364.58334491 -.01159136  00000-0 -58644-1 0  9998","COUNTRY_CODE":"US","TLE_LINE2":"2 54180  53.2169 194.2966 0001488  69.2061 112.2061 15.19434922  1305","INCLINATION":"53.2169","CLASSIFICATION_TYPE":"U","EPOCH":"2022-12-30T14:00:01.000224","RCS_SIZE":"LARGE","MEAN_MOTION":"15.19434922","TIME_SYSTEM":"UTC"},{"RCS_SIZE":"LARGE","EPOCH":"2022-12-30T14:00:01.000224","CLASSIFICATION_TYPE":"U","TIME_SYSTEM":"UTC","MEAN_MOTION":"15.18526212","COUNTRY_CODE":"US","SITE":"AFWTR","TLE_LINE1":"1 54181U 22141AA  22364.58334491 -.01156709  00000-0 -60081-1 0  9990","INCLINATION":"53.2169","TLE_LINE2":"2 54181  53.2169 194.3887 0001439  80.6526  54.2480 15.18526212  1301","OBJECT_ID":"2022-141AA","GP_ID":"221789722","MEAN_ELEMENT_THEORY":"SGP4","SEMIMAJOR_AXIS":"6888.431","ECCENTRICITY":"0.00014390","ELEMENT_SET_NO":"999","MEAN_ANOMALY":"54.2480","REV_AT_EPOCH":"130","EPHEMERIS_TYPE":"0","OBJECT_TYPE":"PAYLOAD","MEAN_MOTION_DOT":"-0.01156709","CENTER_NAME":"EARTH","RA_OF_ASC_NODE":"194.3887","OBJECT_NAME":"STARLINK-5227","BSTAR":"-0.06008100000000","FILE":"3726810","PERIAPSIS":"509.305","ARG_OF_PERICENTER":"80.6526","DECAY_DATE":null,"PERIOD":"94.829","MEAN_MOTION_DDOT":"0.0000000000000","REF_FRAME":"TEME","APOAPSIS":"511.287","LAUNCH_DATE":"2022-10-28","NORAD_CAT_ID":"54181"},{"TLE_LINE2":"2 54182  53.2141 189.6092 0000664   4.1291 357.0751 15.65776345  1307","INCLINATION":"53.2141","COUNTRY_CODE":"US","TLE_LINE1":"1 54182U 22141AB  22364.58334491  .00032893  00000-0  32288-3 0  9995","SITE":"AFWTR","TIME_SYSTEM":"UTC","MEAN_MOTION":"15.65776345","EPOCH":"2022-12-30T14:00:01.000224","RCS_SIZE":"LARGE","CLASSIFICATION_TYPE":"U","MEAN_ANOMALY":"357.0751","REV_AT_EPOCH":"130","ELEMENT_SET_NO":"999","MEAN_ELEMENT_THEORY":"SGP4","ECCENTRICITY":"0.00006640","SEMIMAJOR_AXIS":"6749.144","GP_ID":"221790350","OBJECT_ID":"2022-141AB","PERIAPSIS":"370.561","ARG_OF_PERICENTER":"4.1291","FILE":"3726810","DECAY_DATE":null,"RA_OF_ASC_NODE":"189.6092","BSTAR":"0.00032288000000","OBJECT_NAME":"STARLINK-5231","MEAN_MOTION_DOT":"0.00032893","OBJECT_TYPE":"PAYLOAD","CENTER_NAME":"EARTH","EPHEMERIS_TYPE":"0","NORAD_CAT_ID":"54182","LAUNCH_DATE":"2022-10-28","REF_FRAME":"TEME","APOAPSIS":"371.457","PERIOD":"91.967","MEAN_MOTION_DDOT":"0.0000000000000"},{"NORAD_CAT_ID":"54183","LAUNCH_DATE":"2022-10-28","REF_FRAME":"TEME","APOAPSIS":"509.436","PERIOD":"94.791","MEAN_MOTION_DDOT":"0.0000000000000","PERIAPSIS":"507.538","ARG_OF_PERICENTER":"78.0186","FILE":"3726810","DECAY_DATE":null,"RA_OF_ASC_NODE":"194.3269","BSTAR":"-0.05912300000000","OBJECT_NAME":"STARLINK-5239","MEAN_MOTION_DOT":"-0.01158134","OBJECT_TYPE":"PAYLOAD","CENTER_NAME":"EARTH","EPHEMERIS_TYPE":"0","MEAN_ANOMALY":"88.1315","REV_AT_EPOCH":"130","ELEMENT_SET_NO":"999","MEAN_ELEMENT_THEORY":"SGP4","ECCENTRICITY":"0.00013780","SEMIMAJOR_AXIS":"6886.622","GP_ID":"221790559","OBJECT_ID":"2022-141AC","TLE_LINE2":"2 54183  53.2171 194.3269 0001378  78.0186  88.1315 15.19124721  1308","INCLINATION":"53.2171","COUNTRY_CODE":"US","TLE_LINE1":"1 54183U 22141AC  22364.58334491 -.01158134  00000-0 -59123-1 0  9991","SITE":"AFWTR","TIME_SYSTEM":"UTC","MEAN_MOTION":"15.19124721","EPOCH":"2022-12-30T14:00:01.000224","RCS_SIZE":"LARGE","CLASSIFICATION_TYPE":"U"}];
